GLOBALSTAR M068         
1 32266U 07048D   24222.32181427 -.00000075  00000+0  15931-3 0  9992
2 32266  51.9871 172.9060 0000690 152.4860   4.3959 12.62795866778158
GLOBALSTAR M079         
1 37188U 10054A   24222.84804076 -.00000081  00000+0  12680-3 0  9995
2 37188  52.0060   7.5524 0000665  79.5615  84.5939 12.62262271637819
GLOBALSTAR M074         
1 37189U 10054B   24222.53009220 -.00000100  00000+0  18535-4 0  9998
2 37189  52.0039   7.8909 0000835  96.3560 302.2175 12.62270927637708
GLOBALSTAR M076         
1 37190U 10054C   24222.56518369 -.00000092  00000+0  66443-4 0  9993
2 37190  52.0051   7.9286 0001016  74.2601   2.7615 12.62254844637426
GLOBALSTAR M077         
1 37191U 10054D   24222.53774006 -.00000066  00000+0  21144-3 0  9992
2 37191  52.0095 324.7795 0000698 113.1759 259.8672 12.62262026637791
GLOBALSTAR M075         
1 37192U 10054E   24222.91034655 -.00000091  00000+0  69244-4 0  9996
2 37192  51.9953  49.3067 0000751  78.5895  68.3682 12.62262556637062
GLOBALSTAR M073         
1 37193U 10054F   24222.75531597 -.00000073  00000+0  17148-3 0  9991
2 37193  52.0080 323.3632 0000706 100.0337  61.3308 12.62267699638557
GLOBALSTAR M083         
1 37739U 11033A   24222.84981556 -.00000091  00000+0  70526-4 0  9999
2 37739  51.9849 272.2316 0000219 152.9466  19.4984 12.62263419607896
GLOBALSTAR M088         
1 37740U 11033B   24222.26196219 -.00000098  00000+0  30066-4 0  9993
2 37740  51.9716 179.7716 0000249 359.9411 140.3341 12.62265827603003
GLOBALSTAR M091         
1 37741U 11033C   24222.51991542 -.00000076  00000+0  15748-3 0  9999
2 37741  51.9991 141.9867 0000341   8.4568 162.8756 12.62265350603829
GLOBALSTAR M085         
1 37742U 11033D   24222.42731998 -.00000078  00000+0  14383-3 0  9993
2 37742  51.9865  93.5814 0000524  50.9957 120.7704 12.62264270604323
GLOBALSTAR M081         
1 37743U 11033E   24222.66017215 -.00000074  00000+0  16445-3 0  9996
2 37743  51.9957  95.4676 0000714  36.5280 353.4075 12.62267683604500
GLOBALSTAR M089         
1 37744U 11033F   24222.54227356 -.00000091  00000+0  71138-4 0  9993
2 37744  51.9936  50.1145 0001137  72.9329 319.4703 12.62266861605334
GLOBALSTAR M084         
1 38040U 11080A   24222.58427956 -.00000083  00000+0  11668-3 0  9999
2 38040  52.0000 277.1102 0000686 110.2402  54.2937 12.62265379583317
GLOBALSTAR M080         
1 38041U 11080B   24222.71365854 -.00000081  00000+0  12493-3 0  9998
2 38041  52.0056 278.2136 0000690  87.9738  64.9296 12.62263741583592
GLOBALSTAR M082         
1 38042U 11080C   24222.80999700 -.00000099  00000+0  25048-4 0  9992
2 38042  52.0049 233.3320 0000479 210.3433 320.5439 12.62264921584346
GLOBALSTAR M092         
1 38043U 11080D   24222.59055759 -.00000082  00000+0  12287-3 0  9998
2 38043  52.0107 324.3600 0000778 114.2767 259.1438 12.62264768582600
GLOBALSTAR M090         
1 38044U 11080E   24222.59595551 -.00000097  00000+0  37695-4 0  9995
2 38044  51.9858 228.1935 0000192 203.3766 314.1098 12.62265930584308
GLOBALSTAR M086         
1 38045U 11080F   24222.78365811 -.00000097  00000+0  38622-4 0  9992
2 38045  51.9870 228.1477 0000870 356.5444 175.0514 12.62265296584336
GLOBALSTAR M097         
1 39072U 13005A   24222.45610366 -.00000076  00000+0  15442-3 0  9995
2 39072  52.0039 143.3773 0000460  18.0294 342.0589 12.62269246531442
GLOBALSTAR M093         
1 39073U 13005B   24222.50827673 -.00000071  00000+0  18425-3 0  9992
2 39073  51.9805 137.0164 0000537   8.5882 351.4994 12.62276642531406
GLOBALSTAR M094         
1 39074U 13005C   24222.82514988 -.00000103  00000+0  49884-5 0  9991
2 39074  51.9966  50.1219 0000645  62.1840 297.9092 12.62266640533076
GLOBALSTAR M096         
1 39075U 13005D   24222.83841044 -.00000071  00000+0  18452-3 0  9998
2 39075  52.0069  98.3545 0000516  33.0579 327.0320 12.62268570532322
GLOBALSTAR M078         
1 39076U 13005E   24222.57444938 -.00000101  00000+0  17339-4 0  9999
2 39076  51.9854 184.0907 0000713 196.7398 163.3445 12.62273533530561
GLOBALSTAR M095         
1 39077U 13005F   24222.44234978 -.00000092  00000+0  63178-4 0  9998
2 39077  51.9781 181.8435 0000414 264.3869  95.6950 12.62262889530767
GLOBALSTAR M087         
1 52888U 22064A   24222.46078348 -.00000082  00000+0  88436-4 0  9990
2 52888  51.9773  22.6172 0009965 136.3516 223.8174 13.37580614104650
